NORAD_CAT_ID,OBJECT_NAME,OBJECT_TYPE,EPOCH,MEAN_MOTION,ECCENTRICITY,INCLINATION,RA_OF_ASC_NODE,ARG_OF_PERICENTER,MEAN_ANOMALY,BSTAR,MEAN_MOTION_DOT,MEAN_MOTION_DDOT,TLE_LINE0,TLE_LINE1,TLE_LINE2,SEMIMAJOR_AXIS,PERIOD,APOGEE,PERIGEE,DECAYED
52600.0,STARLINK-4026,PAYLOAD,2022-08-09 22:00:00,15.08808071,0.0001628,53.2176,29.93,55.2901,134.7625,0.00073747,0.00011458,0.0,0 STARLINK-4026,1 52600U 22052C   22221.91667824  .00011458  00000-0  73747-3 0  9996,2 52600  53.2176  29.9300 0001628  55.2901 134.7625 15.08808071  1301,6917.978,95.44,540.969,538.717,0.0
52600.0,STARLINK-4026,PAYLOAD,2022-08-10 14:00:01,15.08828807,0.0001489,53.218,26.936,62.2022,150.9651,-0.0010358,-0.0001673,0.0,0 STARLINK-4026,1 52600U 22052C   22222.58334491 -.00016730  00000-0 -10358-2 0  9999,2 52600  53.2180  26.9360 0001489  62.2022 150.9651 15.08828807  1304,6917.915,95.438,540.81,538.75,0.0
52600.0,STARLINK-4026,PAYLOAD,2022-08-10 17:07:18,15.08821274,0.0001558,53.2178,26.3528,58.1367,141.9242,-0.00060765,-9.941e-05,0.0,0 STARLINK-4026,1 52600U 22052C   22222.71341435 -.00009941  00000-0 -60765-3 0  9994,2 52600  53.2178  26.3528 0001558  58.1367 141.9242 15.08821274 13911,6917.938,95.439,540.88,538.725,0.0
52600.0,STARLINK-4026,PAYLOAD,2022-08-10 22:00:00,15.08798884,0.0001581,53.2178,25.4408,54.2965,170.449,0.0032302,0.00051438,0.0,0 STARLINK-4026,1 52600U 22052C   22222.91667824  .00051438  00000-0  32302-2 0  9990,2 52600  53.2178  25.4408 0001581  54.2965 170.4490 15.08798884  1307,6918.005999999999,95.44,540.965,538.7769999999998,0.0
52600.0,STARLINK-4026,PAYLOAD,2022-08-11 14:00:01,15.08847303,0.0001462,53.2182,22.4469,62.3314,185.557,-0.0013212999999999,-0.00021259,0.0,0 STARLINK-4026,1 52600U 22052C   22223.58334491 -.00021259  00000-0 -13213-2 0  9995,2 52600  53.2182  22.4469 0001462  62.3314 185.5570 15.08847303  1309,6917.858,95.437,540.734,538.712,0.0
52600.0,STARLINK-4026,PAYLOAD,2022-08-11 22:00:00,15.08822541,0.0001538,53.2179,20.9516,54.6496,204.8406,0.0027625,0.0004393,0.0,0 STARLINK-4026,1 52600U 22052C   22223.91667824  .00043930  00000-0  27625-2 0  9991,2 52600  53.2179  20.9516 0001538  54.6496 204.8406 15.08822541 14102,6917.934,95.439,540.863,538.735,0.0
52600.0,STARLINK-4026,PAYLOAD,2022-08-12 14:00:01,15.08879422,0.0001463,53.2181,17.9579,62.8669,219.8258,-0.0021674,-0.00034654,0.0,0 STARLINK-4026,1 52600U 22052C   22224.58334491 -.00034654  00000-0 -21674-2 0  9999,2 52600  53.2181  17.9579 0001463  62.8669 219.8258 15.08879422 14202,6917.76,95.435,540.637,538.613,0.0
52600.0,STARLINK-4026,PAYLOAD,2022-08-12 22:00:01,15.0883808,0.0001578,53.2177,16.4623,56.8014,237.5866,0.0011134,0.00017475,0.0,0 STARLINK-4026,1 52600U 22052C   22224.91668981  .00017475  00000-0  11134-2 0  9990,2 52600  53.2177  16.4623 0001578  56.8014 237.5866 15.08838080  1309,6917.886,95.438,540.8430000000002,538.66,0.0
52600.0,STARLINK-4026,PAYLOAD,2022-08-13 14:00:01,15.08855993,0.0001311,53.2179,13.469,59.1022,258.3867,-0.0014363,-0.00023084,0.0,0 STARLINK-4026,1 52600U 22052C   22225.58334491 -.00023084  00000-0 -14363-2 0  9992,2 52600  53.2179  13.4690 0001311  59.1022 258.3867 15.08855993  1306,6917.831999999999,95.437,540.6030000000002,538.79,0.0
52600.0,STARLINK-4026,PAYLOAD,2022-08-13 22:00:00,15.08840462,0.0001389,53.2175,11.9734,51.816,277.2765,0.0012845999999999,0.00020216,0.0,0 STARLINK-4026,1 52600U 22052C   22225.91667824  .00020216  00000-0  12846-2 0  9994,2 52600  53.2175  11.9734 0001389  51.8160 277.2765 15.08840462  1303,6917.879,95.438,540.705,538.783,0.0
52600.0,STARLINK-4026,PAYLOAD,2022-08-14 06:00:02,15.08829135,0.0001317,53.2176,10.4753,61.727,279.0509,0.00097027,0.00015183,0.0,0 STARLINK-4026,1 52600U 22052C   22226.25002315  .00015183  00000-0  97027-3 0  9992,2 52600  53.2176  10.4753 0001317  61.7270 279.0509 15.08829135 14452,6917.9140000000025,95.438,540.69,538.868,0.0
52600.0,STARLINK-4026,PAYLOAD,2022-08-14 14:00:01,15.08849711,0.0001472,53.2178,8.9802,60.2105,292.0892,-0.0012760999999999,-0.00020545,0.0,0 STARLINK-4026,1 52600U 22052C   22226.58334491 -.00020545  00000-0 -12761-2 0  9992,2 52600  53.2178   8.9802 0001472  60.2105 292.0892 15.08849711  1306,6917.851,95.437,540.734,538.697,0.0
52600.0,STARLINK-4026,PAYLOAD,2022-08-14 22:00:00,15.08849513,0.0001551999999999,53.2175,7.4844,53.8289,310.0647,-0.0014298,-0.00022977,0.0,0 STARLINK-4026,1 52600U 22052C   22226.91667824 -.00022977  00000-0 -14298-2 0  9996,2 52600  53.2175   7.4844 0001552  53.8289 310.0647 15.08849513  1302,6917.851,95.437,540.79,538.643,0.0
52600.0,STARLINK-4026,PAYLOAD,2022-08-15 06:00:00,15.08797807,0.0001494,53.2177,5.9864,63.7443,311.7554,0.003407,0.00054289,0.0,0 STARLINK-4026,1 52600U 22052C   22227.25001157  .00054289  00000-0  34070-2 0  9994,2 52600  53.2177   5.9864 0001494  63.7443 311.7554 15.08797807 14606,6918.009,95.44,540.908,538.841,0.0
52600.0,STARLINK-4026,PAYLOAD,2022-08-15 14:00:01,15.08841794,0.0001634,53.2179,4.4914,60.6082,326.4532,-0.0014597,-0.00023445,0.0,0 STARLINK-4026,1 52600U 22052C   22227.58334491 -.00023445  00000-0 -14597-2 0  9994,2 52600  53.2179   4.4914 0001634  60.6082 326.4532 15.08841794  1306,6917.875,95.437,540.87,538.61,0.0
52600.0,STARLINK-4026,PAYLOAD,2022-08-15 22:00:00,15.08835734,0.0001663,53.2178,2.9955,54.5543,344.094,0.00090022,0.00014066,0.0,0 STARLINK-4026,1 52600U 22052C   22227.91667824  .00014066  00000-0  90022-3 0  9995,2 52600  53.2178   2.9955 0001663  54.5543 344.0940 15.08835734  1305,6917.893,95.438,540.909,538.6080000000002,0.0
52600.0,STARLINK-4026,PAYLOAD,2022-08-16 00:00:00,15.08853394,0.0001644,53.2179,2.6210000000000004,56.6311,74.9109,-0.0013116,-0.00021109,0.0,0 STARLINK-4026,1 52600U 22052C   22228.00001157 -.00021109  00000-0 -13116-2 0  9993,2 52600  53.2179   2.6210 0001644  56.6311  74.9109 15.08853394 14719,6917.839,95.437,540.842,538.567,0.0
52600.0,STARLINK-4026,PAYLOAD,2022-08-16 14:00:01,15.08874881,0.0001659,53.2181,0.0026,57.9928,3.8511,-0.003104,-0.00049397,0.0,0 STARLINK-4026,1 52600U 22052C   22228.58334491 -.00049397  00000-0 -31040-2 0  9991,2 52600  53.2181   0.0026 0001659  57.9928   3.8511 15.08874881 14805,6917.774,95.435,540.786,538.491,0.0
52600.0,STARLINK-4026,PAYLOAD,2022-08-16 22:00:00,15.08840922,0.0001636999999999,53.2181,358.5065,52.1753,21.2875,0.00022264,3.257e-05,0.0,0 STARLINK-4026,1 52600U 22052C   22228.91667824  .00003257  00000-0  22264-3 0  9999,2 52600  53.2181 358.5065 0001637  52.1753  21.2875 15.08840922  1305,6917.878000000002,95.437,540.875,538.61,0.0
52600.0,STARLINK-4026,PAYLOAD,2022-08-17 06:00:02,15.0883329,0.0001529,53.2184,357.0085,59.5202,25.6078,0.0009488,0.00014842,0.0,0 STARLINK-4026,1 52600U 22052C   22229.25002315  .00014842  00000-0  94880-3 0  9990,2 52600  53.2184 357.0085 0001529  59.5202  25.6078 15.08833290 14907,6917.901,95.438,540.8240000000002,538.7080000000002,0.0
52600.0,STARLINK-4026,PAYLOAD,2022-08-17 16:00:00,15.08819989,0.0001769,53.2185,355.14,56.1476,133.406,0.00045439,6.947e-05,0.0,0 STARLINK-4026,1 52600U 22052C   22229.66667824  .00006947  00000-0  45439-3 0  9990,2 52600  53.2185 355.1400 0001769  56.1476 133.4060 15.08819989 14964,6917.941999999999,95.439,541.03,538.5830000000002,0.0
52600.0,STARLINK-4026,PAYLOAD,2022-08-18 08:00:01,15.08845315,0.0001617,53.2187,352.1456,62.8768,149.852,0.0021234,0.00033673,0.0,0 STARLINK-4026,1 52600U 22052C   22230.33334491  .00033673  00000-0  21234-2 0  9999,2 52600  53.2187 352.1456 0001617  62.8768 149.8520 15.08845315 15060,6917.864000000001,95.437,540.8480000000002,538.611,0.0
52600.0,STARLINK-4026,PAYLOAD,2022-08-18 14:00:01,15.08872061,0.0001701,53.2185,351.0247,56.5179,74.919,-0.0015813,-0.00025388,0.0,0 STARLINK-4026,1 52600U 22052C   22230.58334491 -.00025388  00000-0 -15813-2 0  9998,2 52600  53.2185 351.0247 0001701  56.5179  74.9190 15.08872061  1305,6917.781999999997,95.436,540.8240000000002,538.471,0.0
52600.0,STARLINK-4026,PAYLOAD,2022-08-18 22:00:00,15.08863257,0.0001631,53.2182,349.5282,51.93899999999999,91.1205,-0.0014465,-0.0002325,0.0,0 STARLINK-4026,1 52600U 22052C   22230.91667824 -.00023250  00000-0 -14465-2 0  9992,2 52600  53.2182 349.5282 0001631  51.9390  91.1205 15.08863257  1304,6917.809,95.436,540.803,538.5459999999998,0.0
52600.0,STARLINK-4026,PAYLOAD,2022-08-19 14:00:01,15.08815053,0.0001601,53.2183,346.5357,54.3145,111.9572,-0.0014333,-0.00023011,0.0,0 STARLINK-4026,1 52600U 22052C   22231.58334491 -.00023011  00000-0 -14333-2 0  9996,2 52600  53.2183 346.5357 0001601  54.3145 111.9572 15.08815053  1306,6917.956999999999,95.439,540.929,538.714,0.0
52600.0,STARLINK-4026,PAYLOAD,2022-08-19 22:00:00,15.08818973,0.0001605,53.2179,345.0392,53.5292,124.2902,-0.00089933,-0.00014564,0.0,0 STARLINK-4026,1 52600U 22052C   22231.91667824 -.00014564  00000-0 -89933-3 0  9994,2 52600  53.2179 345.0392 0001605  53.5292 124.2902 15.08818973  1300,6917.945,95.439,540.92,538.6990000000002,0.0
52600.0,STARLINK-4026,PAYLOAD,2022-08-20 08:00:01,15.08816564,0.0001489,53.2182,343.1678,62.4942,219.7713,0.00089239,0.00013934,0.0,0 STARLINK-4026,1 52600U 22052C   22232.33334491  .00013934  00000-0  89239-3 0  9999,2 52600  53.2182 343.1678 0001489  62.4942 219.7713 15.08816564 15377,6917.9519999999975,95.439,540.847,538.7869999999998,0.0
52600.0,STARLINK-4026,PAYLOAD,2022-08-20 14:00:01,15.08823482,0.0001605,53.2179,342.0471,55.4228,145.5268,-0.00026721,-4.536e-05,0.0,0 STARLINK-4026,1 52600U 22052C   22232.58334491 -.00004536  00000-0 -26721-3 0  9993,2 52600  53.2179 342.0471 0001605  55.4228 145.5268 15.08823482  1307,6917.931,95.439,540.906,538.686,0.0
52600.0,STARLINK-4026,PAYLOAD,2022-08-20 22:00:00,15.08842715,0.0001569,53.2176,340.5502,54.4399,158.0786,-0.0014246999999999,-0.00022892,0.0,0 STARLINK-4026,1 52600U 22052C   22232.91667824 -.00022892  00000-0 -14247-2 0  9993,2 52600  53.2176 340.5502 0001569  54.4399 158.0786 15.08842715  1303,6917.871999999999,95.437,540.823,538.6519999999998,0.0
